CCSDS_OMM_VERS = 2.0
CREATION_DATE  = 
ORIGINATOR     = 

OBJECT_NAME    = CZ-2C R/B
OBJECT_ID      = 2022-132E
CENTER_NAME    = EARTH
REF_FRAME      = TEME
TIME_SYSTEM    = UTC
MEAN_ELEMENT_THEORY = SGP/SGP4

EPOCH          = 2026-02-15T12:13:17.943744
MEAN_MOTION    = 15.59876902
ECCENTRICITY   = .00192866
INCLINATION    = 97.2957
RA_OF_ASC_NODE = 49.1894
ARG_OF_PERICENTER = 164.2508
MEAN_ANOMALY   = 195.9353

EPHEMERIS_TYPE = 0
CLASSIFICATION_TYPE = U
NORAD_CAT_ID   = 54039
ELEMENT_SET_NO = 999
REV_AT_EPOCH   = 18691
BSTAR          = .54461387E-3
MEAN_MOTION_DOT = .44225E-3
MEAN_MOTION_DDOT = 0

CCSDS_OMM_VERS = 2.0
CREATION_DATE  = 
ORIGINATOR     = 

OBJECT_NAME    = GSLV R/B
OBJECT_ID      = 2022-138AN
CENTER_NAME    = EARTH
REF_FRAME      = TEME
TIME_SYSTEM    = UTC
MEAN_ELEMENT_THEORY = SGP/SGP4

EPOCH          = 2026-02-15T09:21:07.430112
MEAN_MOTION    = 14.96602634
ECCENTRICITY   = .00198756
INCLINATION    = 87.3870
RA_OF_ASC_NODE = 173.8236
ARG_OF_PERICENTER = 228.5051
MEAN_ANOMALY   = 131.4475

EPHEMERIS_TYPE = 0
CLASSIFICATION_TYPE = U
NORAD_CAT_ID   = 54149
ELEMENT_SET_NO = 999
REV_AT_EPOCH   = 18059
BSTAR          = .33962158E-3
MEAN_MOTION_DOT = .3909E-4
MEAN_MOTION_DDOT = 0

CCSDS_OMM_VERS = 2.0
CREATION_DATE  = 
ORIGINATOR     = 

OBJECT_NAME    = XRISM
OBJECT_ID      = 2023-137A
CENTER_NAME    = EARTH
REF_FRAME      = TEME
TIME_SYSTEM    = UTC
MEAN_ELEMENT_THEORY = SGP/SGP4

EPOCH          = 2026-02-15T10:47:56.870592
MEAN_MOTION    = 15.11224789
ECCENTRICITY   = .00081912
INCLINATION    = 31.0028
RA_OF_ASC_NODE = 67.4751
ARG_OF_PERICENTER = 177.9279
MEAN_ANOMALY   = 182.1394

EPHEMERIS_TYPE = 0
CLASSIFICATION_TYPE = U
NORAD_CAT_ID   = 57800
ELEMENT_SET_NO = 999
REV_AT_EPOCH   = 13442
BSTAR          = .42647842E-3
MEAN_MOTION_DOT = .7449E-4
MEAN_MOTION_DDOT = 0

CCSDS_OMM_VERS = 2.0
CREATION_DATE  = 
ORIGINATOR     = 

OBJECT_NAME    = ACS3
OBJECT_ID      = 2024-077B
CENTER_NAME    = EARTH
REF_FRAME      = TEME
TIME_SYSTEM    = UTC
MEAN_ELEMENT_THEORY = SGP/SGP4

EPOCH          = 2026-02-15T10:57:22.518432
MEAN_MOTION    = 13.88668537
ECCENTRICITY   = .0047233
INCLINATION    = 97.2188
RA_OF_ASC_NODE = 352.5665
ARG_OF_PERICENTER = 143.2086
MEAN_ANOMALY   = 217.2335

EPHEMERIS_TYPE = 0
CLASSIFICATION_TYPE = U
NORAD_CAT_ID   = 59588
ELEMENT_SET_NO = 999
REV_AT_EPOCH   = 9111
BSTAR          = .18530274E-1
MEAN_MOTION_DOT = .22554E-3
MEAN_MOTION_DDOT = 0

CCSDS_OMM_VERS = 2.0
CREATION_DATE  = 
ORIGINATOR     = 

OBJECT_NAME    = SZ-21 MODULE
OBJECT_ID      = 2025-246C
CENTER_NAME    = EARTH
REF_FRAME      = TEME
TIME_SYSTEM    = UTC
MEAN_ELEMENT_THEORY = SGP/SGP4

EPOCH          = 2026-02-15T04:52:02.803872
MEAN_MOTION    = 15.66814588
ECCENTRICITY   = .0002175
INCLINATION    = 41.4768
RA_OF_ASC_NODE = 341.5977
ARG_OF_PERICENTER = 296.5638
MEAN_ANOMALY   = 63.4980

EPHEMERIS_TYPE = 0
CLASSIFICATION_TYPE = U
NORAD_CAT_ID   = 66515
ELEMENT_SET_NO = 999
REV_AT_EPOCH   = 1454
BSTAR          = .37236E-3
MEAN_MOTION_DOT = .4035E-3
MEAN_MOTION_DDOT = 0

